$$SOE
2460721.500000000, A.D. 2025-Feb-15 00:00:00.0000, 6.933069884506860E+08, 3.384077787927013E+08, 3.661434911040866E+07,
2460728.500000000, A.D. 2025-Feb-22 00:00:00.0000, 6.904077363088036E+08, 3.456633501785307E+08, 3.730011551538773E+07,
2460735.500000000, A.D. 2025-Mar-01 00:00:00.0000, 6.874358580310823E+08, 3.528825459407437E+08, 3.798195548173034E+07,
2460742.500000000, A.D. 2025-Mar-08 00:00:00.0000, 6.843918497530414E+08, 3.600646997008505E+08, 3.865980698422955E+07,
2460749.500000000, A.D. 2025-Mar-15 00:00:00.0000, 6.812762133925107E+08, 3.672091538041623E+08, 3.933360870755057E+07,
2460756.500000000, A.D. 2025-Mar-22 00:00:00.0000, 6.780894543199459E+08, 3.743152597381824E+08, 4.000330028917617E+07,
2460763.500000000, A.D. 2025-Mar-29 00:00:00.0000, 6.748320803994558E+08, 3.813823762952208E+08, 4.066882225349486E+07,
2460770.500000000, A.D. 2025-Apr-05 00:00:00.0000, 6.715046027257755E+08, 3.884098686175130E+08, 4.133011586335966E+07,
2460777.500000000, A.D. 2025-Apr-12 00:00:00.0000, 6.681075361310488E+08, 3.953971082290221E+08, 4.198712307395506E+07,
2460784.500000000, A.D. 2025-Apr-19 00:00:00.0000, 6.646413992741736E+08, 4.023434731729404E+08, 4.263978653383690E+07,
2460791.500000000, A.D. 2025-Apr-26 00:00:00.0000, 6.611067145843781E+08, 4.092483480522747E+08, 4.328804959138238E+07,
2460798.500000000, A.D. 2025-May-03 00:00:00.0000, 6.575040081727180E+08, 4.161111239931241E+08, 4.393185629757395E+07,
2460805.500000000, A.D. 2025-May-10 00:00:00.0000, 6.538338097400951E+08, 4.229311985397266E+08, 4.457115140302977E+07,
2460812.500000000, A.D. 2025-May-17 00:00:00.0000, 6.500966525185490E+08, 4.297079754406310E+08, 4.520588034243080E+07,
2460819.500000000, A.D. 2025-May-24 00:00:00.0000, 6.462930734197906E+08, 4.364408642718774E+08, 4.583598918586344E+07,
2460826.500000000, A.D. 2025-May-31 00:00:00.0000, 6.424236138088317E+08, 4.431292802084324E+08, 4.646142454411975E+07,
2460833.500000000, A.D. 2025-Jun-07 00:00:00.0000, 6.384888205016907E+08, 4.497726451487911E+08, 4.708213356314617E+07,
2460840.500000000, A.D. 2025-Jun-14 00:00:00.0000, 6.344892446223992E+08, 4.563703895261434E+08, 4.769806417002505E+07,
2460847.500000000, A.D. 2025-Jun-21 00:00:00.0000, 6.304254395361825E+08, 4.629219515352561E+08, 4.830916519162282E+07,
2460854.500000000, A.D. 2025-Jun-28 00:00:00.0000, 6.262979609873240E+08, 4.694267755399843E+08, 4.891538620325103E+07,
2460861.500000000, A.D. 2025-Jul-05 00:00:00.0000, 6.221073679249648E+08, 4.758843118179035E+08, 4.951667742270738E+07,
2460868.500000000, A.D. 2025-Jul-12 00:00:00.0000, 6.178542228257498E+08, 4.822940168368781E+08, 5.011298969317612E+07,
2460875.500000000, A.D. 2025-Jul-19 00:00:00.0000, 6.135390917029009E+08, 4.886553534886794E+08, 5.070427449068362E+07,
2460882.500000000, A.D. 2025-Jul-26 00:00:00.0000, 6.091625440116737E+08, 4.949677912232213E+08, 5.129048393231761E+07,
2460889.500000000, A.D. 2025-Aug-02 00:00:00.0000, 6.047251525165591E+08, 5.012308061051759E+08, 5.187157078108296E+07,
2460896.500000000, A.D. 2025-Aug-09 00:00:00.0000, 6.002274931435709E+08, 5.074438807785082E+08, 5.244748844417688E+07,
2460903.500000000, A.D. 2025-Aug-16 00:00:00.0000, 5.956701448944501E+08, 5.136065042759670E+08, 5.301819095262238E+07,
2460910.500000000, A.D. 2025-Aug-23 00:00:00.0000, 5.910536901153356E+08, 5.197181716903552E+08, 5.358363289697254E+07,
2460917.500000000, A.D. 2025-Aug-30 00:00:00.0000, 5.863787154488192E+08, 5.257783844219105E+08, 5.414376934749860E+07,
2460924.500000000, A.D. 2025-Sep-06 00:00:00.0000, 5.816458120511223E+08, 5.317866520022387E+08, 5.469855597091436E+07,
2460931.500000000, A.D. 2025-Sep-13 00:00:00.0000, 5.768555734034957E+08, 5.377424930122945E+08, 5.524794929426321E+07,
2460938.500000000, A.D. 2025-Sep-20 00:00:00.0000, 5.720085939913514E+08, 5.436454334505075E+08, 5.579190668168393E+07,
2460945.500000000, A.D. 2025-Sep-27 00:00:00.0000, 5.671054699099987E+08, 5.494950056627852E+08, 5.633038618147671E+07,
2460952.500000000, A.D. 2025-Oct-04 00:00:00.0000, 5.621467993802758E+08, 5.552907483736254E+08, 5.686334647265899E+07,
2460959.500000000, A.D. 2025-Oct-11 00:00:00.0000, 5.571331828003730E+08, 5.610322068754854E+08, 5.739074686832082E+07,
2460966.500000000, A.D. 2025-Oct-18 00:00:00.0000, 5.520652226174939E+08, 5.667189331022239E+08, 5.791254732737601E+07,
2460973.500000000, A.D. 2025-Oct-25 00:00:00.0000, 5.469435231588510E+08, 5.723504855979236E+08, 5.842870846276870E+07,
2460980.500000000, A.D. 2025-Nov-01 00:00:00.0000, 5.417686904613512E+08, 5.779264293969526E+08, 5.893919154367560E+07,
2460987.500000000, A.D. 2025-Nov-08 00:00:00.0000, 5.365413321344131E+08, 5.834463357842834E+08, 5.944395848580614E+07,
2460994.500000000, A.D. 2025-Nov-15 00:00:00.0000, 5.312620574036689E+08, 5.889097818780103E+08, 5.994297181125280E+07,
2461001.500000000, A.D. 2025-Nov-22 00:00:00.0000, 5.259314777381783E+08, 5.943163502546580E+08, 6.043619455873063E+07,
2461008.500000000, A.D. 2025-Nov-29 00:00:00.0000, 5.205502079078849E+08, 5.996656297526537E+08, 6.092359025077623E+07,
2461015.500000000, A.D. 2025-Dec-06 00:00:00.0000, 5.151188651936331E+08, 6.049572173182131E+08, 6.140512311544868E+07,
2461022.500000000, A.D. 2025-Dec-13 00:00:00.0000, 5.096380671831569E+08, 6.101907175238559E+08, 6.188075824719384E+07,
2461029.500000000, A.D. 2025-Dec-20 00:00:00.0000, 5.041084316464135E+08, 6.153657407833679E+08, 6.235046147002092E+07,
2461036.500000000, A.D. 2025-Dec-27 00:00:00.0000, 4.985305774165708E+08, 6.204819028548877E+08, 6.281419921316573E+07,
2461043.500000000, A.D. 2026-Jan-03 00:00:00.0000, 4.929051248173556E+08, 6.255388250170441E+08, 6.327193848274526E+07,
2461050.500000000, A.D. 2026-Jan-10 00:00:00.0000, 4.872326957464821E+08, 6.305361342399569E+08, 6.372364686389360E+07,
2461057.500000000, A.D. 2026-Jan-17 00:00:00.0000, 4.815139136477260E+08, 6.354734632604038E+08, 6.416929252464265E+07,
2461064.500000000, A.D. 2026-Jan-24 00:00:00.0000, 4.757494034495999E+08, 6.403504505847437E+08, 6.460884421635550E+07,
2461071.500000000, A.D. 2026-Jan-31 00:00:00.0000, 4.699397914940871E+08, 6.451667404131509E+08, 6.504227126806414E+07,
2461078.500000000, A.D. 2026-Feb-07 00:00:00.0000, 4.640857055169455E+08, 6.499219824287856E+08, 6.546954356450778E+07,
2461085.500000000, A.D. 2026-Feb-14 00:00:00.0000, 4.581877749326712E+08, 6.546158314375738E+08, 6.589063148352978E+07,
2461092.500000000, A.D. 2026-Feb-21 00:00:00.0000, 4.522466318117641E+08, 6.592479474364765E+08, 6.630550580455950E+07,
2461099.500000000, A.D. 2026-Feb-28 00:00:00.0000, 4.462629114655180E+08, 6.638179972642344E+08, 6.671413778201696E+07,
2461106.500000000, A.D. 2026-Mar-07 00:00:00.0000, 4.402372505796095E+08, 6.683256558848145E+08, 6.711649941314811E+07,
2461113.500000000, A.D. 2026-Mar-14 00:00:00.0000, 4.341702856721141E+08, 6.727706049711704E+08, 6.751256345519441E+07,
2461120.500000000, A.D. 2026-Mar-21 00:00:00.0000, 4.280626536590785E+08, 6.771525316874942E+08, 6.790230326532176E+07,
2461127.500000000, A.D. 2026-Mar-28 00:00:00.0000, 4.219149925182793E+08, 6.814711286984245E+08, 6.828569273175073E+07,
2461134.500000000, A.D. 2026-Apr-04 00:00:00.0000, 4.157279414473031E+08, 6.857260944393791E+08, 6.866270627266663E+07,
2461141.500000000, A.D. 2026-Apr-11 00:00:00.0000, 4.095021407897222E+08, 6.899171332879767E+08, 6.903331884853762E+07,
2461148.500000000, A.D. 2026-Apr-18 00:00:00.0000, 4.032382318886290E+08, 6.940439556298447E+08, 6.939750597287831E+07,
2461155.500000000, A.D. 2026-Apr-25 00:00:00.0000, 3.969368569134889E+08, 6.981062778335872E+08, 6.975524371867174E+07,
2461162.500000000, A.D. 2026-May-02 00:00:00.0000, 3.905986586912944E+08, 7.021038221054218E+08, 7.010650871542573E+07,
2461169.500000000, A.D. 2026-May-09 00:00:00.0000, 3.842242806670269E+08, 7.060363161574237E+08, 7.045127812022302E+07,
2461176.500000000, A.D. 2026-May-16 00:00:00.0000, 3.778143673718432E+08, 7.099034928279078E+08, 7.078952953955886E+07,
2461183.500000000, A.D. 2026-May-23 00:00:00.0000, 3.713695654512770E+08, 7.137050906764274E+08, 7.112124098084784E+07,
2461190.500000000, A.D. 2026-May-30 00:00:00.0000, 3.648905231752769E+08, 7.174408558728037E+08, 7.144639105032405E+07,
2461197.500000000, A.D. 2026-Jun-06 00:00:00.0000, 3.583778881126873E+08, 7.211105421065040E+08, 7.176495915882668E+07,
2461204.500000000, A.D. 2026-Jun-13 00:00:00.0000, 3.518323066361604E+08, 7.247139087155703E+08, 7.207692541540292E+07,
2461211.500000000, A.D. 2026-Jun-20 00:00:00.0000, 3.452544247566625E+08, 7.282507199612985E+08, 7.238227049360803E+07,
2461218.500000000, A.D. 2026-Jun-27 00:00:00.0000, 3.386448885892053E+08, 7.317207451086771E+08, 7.268097559821951E+07,
2461225.500000000, A.D. 2026-Jul-04 00:00:00.0000, 3.320043444495866E+08, 7.351237585376441E+08, 7.297302246876413E+07,
2461232.500000000, A.D. 2026-Jul-11 00:00:00.0000, 3.253334388360034E+08, 7.384595397533045E+08, 7.325839338550740E+07,
2461239.500000000, A.D. 2026-Jul-18 00:00:00.0000, 3.186328183882015E+08, 7.417278733209009E+08, 7.353707117124328E+07,
2461246.500000000, A.D. 2026-Jul-25 00:00:00.0000, 3.119031298485528E+08, 7.449285487283348E+08, 7.380903918663442E+07,
2461253.500000000, A.D. 2026-Aug-01 00:00:00.0000, 3.051450200731030E+08, 7.480613601282004E+08, 7.407428131056643E+07,
2461260.500000000, A.D. 2026-Aug-08 00:00:00.0000, 2.983591363073937E+08, 7.511261059235758E+08, 7.433278188274074E+07,
2461267.500000000, A.D. 2026-Aug-15 00:00:00.0000, 2.915461271420445E+08, 7.541225886481681E+08, 7.458452560715503E+07,
2461274.500000000, A.D. 2026-Aug-22 00:00:00.0000, 2.847066433870329E+08, 7.570506163622545E+08, 7.482949758602139E+07,
2461281.500000000, A.D. 2026-Aug-29 00:00:00.0000, 2.778413365754144E+08, 7.599100041916388E+08, 7.506768358182859E+07,
2461288.500000000, A.D. 2026-Sep-05 00:00:00.0000, 2.709508572297608E+08, 7.627005731416371E+08, 7.529907007747683E+07,
2461295.500000000, A.D. 2026-Sep-12 00:00:00.0000, 2.640358553461894E+08, 7.654221486821933E+08, 7.552364411334452E+07,
$$EOE